0 SL-16 DEB
1 22398U 92093CP  13280.78828476  .00000702  00000-0  45924-3 0  7490
2 22398 070.9545 172.1321 0118397 023.8801 032.7562 14.02249180 58384
0 SL-16 DEB
1 22398U 92093CP  13282.07445781  .00000735  00000-0  47940-3 0  7506
2 22398 070.9544 169.4808 0118483 021.9987 045.4602 14.02253465 58569
0 SL-16 DEB
1 22398U 92093CP  13283.16354486  .00000602  00000-0  39756-3 0  7518
2 22398 070.9543 167.2358 0118544 020.3866 143.2874 14.02256384 58719
0 SL-16 DEB
1 22398U 92093CP  13285.36420378  .00000398  00000-0  27234-3 0  7527
2 22398 070.9539 162.6992 0118682 017.1603 092.4492 14.02260528 59024
0 SL-16 DEB
1 22398U 92093CP  13287.70755418  .00000640  00000-0  42113-3 0  7537
2 22398 070.9533 157.8686 0118800 013.7287 041.9729 14.02262662 59355
0 SL-16 DEB
1 22398U 92093CP  13289.78439270  .00000821  00000-0  53181-3 0  7541
2 22398 070.9530 153.5872 0118897 010.6818 086.1430 14.02264814 59647
0 SL-16 DEB
1 22398U 92093CP  13291.98995492  .00000800  00000-0  51897-3 0  7559
2 22398 070.9528 149.0401 0119015 007.4364 060.1499 14.02268385 59953
0 SL-16 DEB
1 22398U 92093CP  13294.54997010  .00000516  00000-0  34511-3 0  7561
2 22398 070.9528 143.7626 0119128 003.6392 023.5443 14.02274943 60318
